[
    {
        "Altitude(m)": 704900.5576200583,
        "Argument of Periapsis(deg)": 0.004556048474650827,
        "Eccentricity": 0.0,
        "Inclination(deg)": 45.0,
        "Latitude(deg)": -8.38265269455679,
        "Longitude(deg)": 61.28083384840676,
        "Mean Anomaly(deg)": -11.750313341007724,
        "RAAN(deg)": 169.99569922341672,
        "Satellite Name": "Constellation 1 769",
        "Satellite Number": 769,
        "Semi-Major Axis(m)": 7083131.272910544,
        "Time(s)": 76
    },
    {
        "Altitude(m)": 704891.1733638562,
        "Argument of Periapsis(deg)": 0.004615996480896233,
        "Eccentricity": 0.0,
        "Inclination(deg)": 45.0,
        "Latitude(deg)": -8.339925528987644,
        "Longitude(deg)": 61.320486306638394,
        "Mean Anomaly(deg)": -11.68961220075776,
        "RAAN(deg)": 169.99564263425117,
        "Satellite Name": "Constellation 1 769",
        "Satellite Number": 769,
        "Semi-Major Axis(m)": 7083131.272910544,
        "Time(s)": 77
    },
    {
        "Altitude(m)": 704881.8068018839,
        "Argument of Periapsis(deg)": 0.004675944487141638,
        "Eccentricity": 0.0,
        "Inclination(deg)": 45.0,
        "Latitude(deg)": -8.297193359207155,
        "Longitude(deg)": 61.36012935480598,
        "Mean Anomaly(deg)": -11.628911060507924,
        "RAAN(deg)": 169.99558604508562,
        "Satellite Name": "Constellation 1 769",
        "Satellite Number": 769,
        "Semi-Major Axis(m)": 7083131.272910544,
        "Time(s)": 78
    },
    {
        "Altitude(m)": 704872.4579579679,
        "Argument of Periapsis(deg)": 0.004735892493387044,
        "Eccentricity": 0.0,
        "Inclination(deg)": 45.0,
        "Latitude(deg)": -8.254456211804438,
        "Longitude(deg)": 61.39976304310217,
        "Mean Anomaly(deg)": -11.568209920257937,
        "RAAN(deg)": 169.99552945592,
        "Satellite Name": "Constellation 1 769",
        "Satellite Number": 769,
        "Semi-Major Axis(m)": 7083131.272910544,
        "Time(s)": 79
    },
    {
        "Altitude(m)": 704863.1268558371,
        "Argument of Periapsis(deg)": 0.004795840499632449,
        "Eccentricity": 0.0,
        "Inclination(deg)": 45.0,
        "Latitude(deg)": -8.211714113351361,
        "Longitude(deg)": 61.43938742169989,
        "Mean Anomaly(deg)": -11.507508780008102,
        "RAAN(deg)": 169.99547286675445,
        "Satellite Name": "Constellation 1 769",
        "Satellite Number": 769,
        "Semi-Major Axis(m)": 7083131.272910544,
        "Time(s)": 80
    },
    {
        "Altitude(m)": 704853.8135191462,
        "Argument of Periapsis(deg)": 0.004855788505877855,
        "Eccentricity": 0.0,
        "Inclination(deg)": 45.0,
        "Latitude(deg)": -8.168967090402013,
        "Longitude(deg)": 61.47900254075302,
        "Mean Anomaly(deg)": -11.446807639758239,
        "RAAN(deg)": 169.99541627758887,
        "Satellite Name": "Constellation 1 769",
        "Satellite Number": 769,
        "Semi-Major Axis(m)": 7083131.272910544,
        "Time(s)": 81
    },
    {
        "Altitude(m)": 704844.5179714555,
        "Argument of Periapsis(deg)": 0.00491573651212326,
        "Eccentricity": 0.0,
        "Inclination(deg)": 45.0,
        "Latitude(deg)": -8.12621516949335,
        "Longitude(deg)": 61.51860828229931,
        "Mean Anomaly(deg)": -11.386106499508355,
        "RAAN(deg)": 169.99535968842332,
        "Satellite Name": "Constellation 1 769",
        "Satellite Number": 769,
        "Semi-Major Axis(m)": 7083131.272910544,
        "Time(s)": 82
    },
    {
        "Altitude(m)": 704835.2402362489,
        "Argument of Periapsis(deg)": 0.004975684518368666,
        "Eccentricity": 0.0,
        "Inclination(deg)": 45.0,
        "Latitude(deg)": -8.083458377144456,
        "Longitude(deg)": 61.558205032648345,
        "Mean Anomaly(deg)": -11.325405359258417,
        "RAAN(deg)": 169.99530309925777,
        "Satellite Name": "Constellation 1 769",
        "Satellite Number": 769,
        "Semi-Major Axis(m)": 7083131.272910544,
        "Time(s)": 83
    },
    {
        "Altitude(m)": 704825.9803369171,
        "Argument of Periapsis(deg)": 0.005035632524614072,
        "Eccentricity": 0.0,
        "Inclination(deg)": 45.0,
        "Latitude(deg)": -8.0406967398579,
        "Longitude(deg)": 61.59779267379951,
        "Mean Anomaly(deg)": -11.264704219008529,
        "RAAN(deg)": 169.99524651009216,
        "Satellite Name": "Constellation 1 769",
        "Satellite Number": 769,
        "Semi-Major Axis(m)": 7083131.272910544,
        "Time(s)": 84
    },
    {
        "Altitude(m)": 704816.7382967796,
        "Argument of Periapsis(deg)": 0.0050955805308594785,
        "Eccentricity": 0.0,
        "Inclination(deg)": 45.0,
        "Latitude(deg)": -7.9979302841187385,
        "Longitude(deg)": 61.63737125583064,
        "Mean Anomaly(deg)": -11.204003078758591,
        "RAAN(deg)": 169.9951899209266,
        "Satellite Name": "Constellation 1 769",
        "Satellite Number": 769,
        "Semi-Major Axis(m)": 7083131.272910544,
        "Time(s)": 85
    },
    {
        "Altitude(m)": 704807.5141390638,
        "Argument of Periapsis(deg)": 0.005155528537104883,
        "Eccentricity": 0.0,
        "Inclination(deg)": 45.0,
        "Latitude(deg)": -7.955159036395261,
        "Longitude(deg)": 61.67694082880042,
        "Mean Anomaly(deg)": -11.14330193850873,
        "RAAN(deg)": 169.99513333176102,
        "Satellite Name": "Constellation 1 769",
        "Satellite Number": 769,
        "Semi-Major Axis(m)": 7083131.272910544,
        "Time(s)": 86
    },
    {
        "Altitude(m)": 704798.3078869025,
        "Argument of Periapsis(deg)": 0.0052154765433502885,
        "Eccentricity": 0.0,
        "Inclination(deg)": 45.0,
        "Latitude(deg)": -7.91238302313854,
        "Longitude(deg)": 61.716501442749085,
        "Mean Anomaly(deg)": -11.082600798258769,
        "RAAN(deg)": 169.99507674259547,
        "Satellite Name": "Constellation 1 769",
        "Satellite Number": 769,
        "Semi-Major Axis(m)": 7083131.272910544,
        "Time(s)": 87
    },
    {
        "Altitude(m)": 704789.1195633657,
        "Argument of Periapsis(deg)": 0.005275424549595694,
        "Eccentricity": 0.0,
        "Inclination(deg)": 45.0,
        "Latitude(deg)": -7.869602270783188,
        "Longitude(deg)": 61.75605314769791,
        "Mean Anomaly(deg)": -11.021899658008907,
        "RAAN(deg)": 169.9950201534299,
        "Satellite Name": "Constellation 1 769",
        "Satellite Number": 769,
        "Semi-Major Axis(m)": 7083131.272910544,
        "Time(s)": 88
    },
    {
        "Altitude(m)": 704779.9491914172,
        "Argument of Periapsis(deg)": 0.0053353725558411,
        "Eccentricity": 0.0,
        "Inclination(deg)": 45.0,
        "Latitude(deg)": -7.8268168057469865,
        "Longitude(deg)": 61.79559582555288,
        "Mean Anomaly(deg)": -10.96119851775907,
        "RAAN(deg)": 169.99496356426434,
        "Satellite Name": "Constellation 1 769",
        "Satellite Number": 769,
        "Semi-Major Axis(m)": 7083131.272910544,
        "Time(s)": 89
    },
    {
        "Altitude(m)": 704770.7967939551,
        "Argument of Periapsis(deg)": 0.005395320562086505,
        "Eccentricity": 0.0,
        "Inclination(deg)": 45.0,
        "Latitude(deg)": -7.7840266544306465,
        "Longitude(deg)": 61.83512986249251,
        "Mean Anomaly(deg)": -10.900497377509184,
        "RAAN(deg)": 169.99490697509873,
        "Satellite Name": "Constellation 1 769",
        "Satellite Number": 769,
        "Semi-Major Axis(m)": 7083131.272910544,
        "Time(s)": 90
    },
    {
        "Altitude(m)": 704761.6623937736,
        "Argument of Periapsis(deg)": 0.00545526856833191,
        "Eccentricity": 0.0,
        "Inclination(deg)": 45.0,
        "Latitude(deg)": -7.741231843218855,
        "Longitude(deg)": 61.87465514038593,
        "Mean Anomaly(deg)": -10.839796237259222,
        "RAAN(deg)": 169.99485038593318,
        "Satellite Name": "Constellation 1 769",
        "Satellite Number": 769,
        "Semi-Major Axis(m)": 7083131.272910544,
        "Time(s)": 91
    },
    {
        "Altitude(m)": 704752.5460135916,
        "Argument of Periapsis(deg)": 0.005515216574577317,
        "Eccentricity": 0.0,
        "Inclination(deg)": 45.0,
        "Latitude(deg)": -7.69843239847985,
        "Longitude(deg)": 61.91417170918084,
        "Mean Anomaly(deg)": -10.77909509700936,
        "RAAN(deg)": 169.99479379676762,
        "Satellite Name": "Constellation 1 769",
        "Satellite Number": 769,
        "Semi-Major Axis(m)": 7083131.272910544,
        "Time(s)": 92
    },
    {
        "Altitude(m)": 704743.4476760479,
        "Argument of Periapsis(deg)": 0.005575164580822722,
        "Eccentricity": 0.0,
        "Inclination(deg)": 45.0,
        "Latitude(deg)": -7.6556283465653046,
        "Longitude(deg)": 61.95367961880696,
        "Mean Anomaly(deg)": -10.718393956759398,
        "RAAN(deg)": 169.99473720760204,
        "Satellite Name": "Constellation 1 769",
        "Satellite Number": 769,
        "Semi-Major Axis(m)": 7083131.272910544,
        "Time(s)": 93
    },
    {
        "Altitude(m)": 704734.3674036871,
        "Argument of Periapsis(deg)": 0.005635112587068129,
        "Eccentricity": 0.0,
        "Inclination(deg)": 45.0,
        "Latitude(deg)": -7.612819713810886,
        "Longitude(deg)": 61.99317891917577,
        "Mean Anomaly(deg)": -10.657692816509563,
        "RAAN(deg)": 169.9946806184365,
        "Satellite Name": "Constellation 1 769",
        "Satellite Number": 769,
        "Semi-Major Axis(m)": 7083131.272910544,
        "Time(s)": 94
    }
]